{
  "norad_id": 55663,
  "name": "STARLINK-5473",
  "history": [
    {
      "epoch": "2026-03-28T18:35:17.721024Z",
      "apogee_km": 574.6330283212446,
      "perigee_km": 569.5303167762331,
      "latitude_deg": 1.1157799626318862e-05,
      "longitude_deg": 11.30883802055658,
      "height_km": 574.7239515975216,
      "semi_major_axis_km": 6950.218672548739,
      "eccentricity": 0.00036709,
      "inclination_deg": 69.9986,
      "raan_deg": 116.3228,
      "arg_perigee_deg": 265.1822,
      "mean_anomaly_deg": 94.8918,
      "mean_motion_rev_day": 14.98321663
    },
    {
      "epoch": "2026-03-29T04:12:05.165856Z",
      "apogee_km": 573.9528043210694,
      "perigee_km": 569.7675160312119,
      "latitude_deg": -3.1015596414807214e-06,
      "longitude_deg": -134.2937531782909,
      "height_km": 574.3125510264244,
      "semi_major_axis_km": 6949.997160176141,
      "eccentricity": 0.0003011,
      "inclination_deg": 69.9985,
      "raan_deg": 115.3127,
      "arg_perigee_deg": 269.3166,
      "mean_anomaly_deg": 90.7648,
      "mean_motion_rev_day": 14.98393296
    },
    {
      "epoch": "2026-03-30T02:37:58.787616Z",
      "apogee_km": 574.6571996519015,
      "perigee_km": 569.4542853648582,
      "latitude_deg": -8.433391159824626e-06,
      "longitude_deg": -114.04481006289006,
      "height_km": 574.4825910960529,
      "semi_major_axis_km": 6950.1927425083795,
      "eccentricity": 0.0003743,
      "inclination_deg": 69.9986,
      "raan_deg": 112.9563,
      "arg_perigee_deg": 270.0265,
      "mean_anomaly_deg": 90.0465,
      "mean_motion_rev_day": 14.98330048
    },
    {
      "epoch": "2026-03-30T05:50:14.849952Z",
      "apogee_km": 574.5012874345275,
      "perigee_km": 569.6111314923482,
      "latitude_deg": 3.9000162472778455e-05,
      "longitude_deg": -162.57902170587647,
      "height_km": 574.7057362767255,
      "semi_major_axis_km": 6950.193209463438,
      "eccentricity": 0.0003518,
      "inclination_deg": 69.9993,
      "raan_deg": 112.6206,
      "arg_perigee_deg": 264.7998,
      "mean_anomaly_deg": 95.276,
      "mean_motion_rev_day": 14.98329897
    },
    {
      "epoch": "2026-03-30T10:38:39.282144Z",
      "apogee_km": 574.5506942857419,
      "perigee_km": 569.5956114593528,
      "latitude_deg": -1.6493151914466002e-05,
      "longitude_deg": 124.61584992107686,
      "height_km": 574.6378349239557,
      "semi_major_axis_km": 6950.210152872547,
      "eccentricity": 0.00035647,
      "inclination_deg": 69.9989,
      "raan_deg": 112.1147,
      "arg_perigee_deg": 266.8357,
      "mean_anomaly_deg": 93.2394,
      "mean_motion_rev_day": 14.98324418
    },
    {
      "epoch": "2026-03-30T18:39:19.041408Z",
      "apogee_km": 574.5564035261777,
      "perigee_km": 569.4713951221956,
      "latitude_deg": 1.6030687227416254e-05,
      "longitude_deg": 3.279496584121479,
      "height_km": 574.4193747313556,
      "semi_major_axis_km": 6950.150899324186,
      "eccentricity": 0.00036582,
      "inclination_deg": 69.9993,
      "raan_deg": 111.273,
      "arg_perigee_deg": 270.5084,
      "mean_anomaly_deg": 89.5656,
      "mean_motion_rev_day": 14.98343579
    },
    {
      "epoch": "2026-03-31T10:40:39.448992Z",
      "apogee_km": 574.7175647509093,
      "perigee_km": 569.3468909817684,
      "latitude_deg": -2.8396216598673517e-05,
      "longitude_deg": 120.60253584808692,
      "height_km": 574.4934313938957,
      "semi_major_axis_km": 6950.169227866339,
      "eccentricity": 0.00038637,
      "inclination_deg": 69.9982,
      "raan_deg": 109.5891,
      "arg_perigee_deg": 269.2946,
      "mean_anomaly_deg": 90.777,
      "mean_motion_rev_day": 14.98337652
    },
    {
      "epoch": "2026-04-01T09:06:34.035840Z",
      "apogee_km": 574.3562564531894,
      "perigee_km": 569.8622272332141,
      "latitude_deg": 3.479488381849375e-05,
      "longitude_deg": 140.84757226037314,
      "height_km": 574.9715845016987,
      "semi_major_axis_km": 6950.2462418432015,
      "eccentricity": 0.0003233,
      "inclination_deg": 70.0001,
      "raan_deg": 107.2328,
      "arg_perigee_deg": 258.8462,
      "mean_anomaly_deg": 101.2334,
      "mean_motion_rev_day": 14.98312748
    },
    {
      "epoch": "2026-04-02T09:08:33.963360Z",
      "apogee_km": 574.681901480134,
      "perigee_km": 569.4244996048355,
      "latitude_deg": 3.218907287301324e-05,
      "longitude_deg": 136.83616124797726,
      "height_km": 574.5224216899455,
      "semi_major_axis_km": 6950.1902005424845,
      "eccentricity": 0.00037822,
      "inclination_deg": 69.9985,
      "raan_deg": 104.7081,
      "arg_perigee_deg": 269.1033,
      "mean_anomaly_deg": 90.9693,
      "mean_motion_rev_day": 14.9833087
    },
    {
      "epoch": "2026-04-03T10:46:42.558816Z",
      "apogee_km": 574.6393397024449,
      "perigee_km": 569.4603384774291,
      "latitude_deg": -1.9536000891373957e-05,
      "longitude_deg": 108.55410687188603,
      "height_km": 574.5422697431059,
      "semi_major_axis_km": 6950.186839089936,
      "eccentricity": 0.00037258,
      "inclination_deg": 69.9984,
      "raan_deg": 102.0147,
      "arg_perigee_deg": 268.575,
      "mean_anomaly_deg": 91.4982,
      "mean_motion_rev_day": 14.98331957
    },
    {
      "epoch": "2026-04-04T10:48:45.058464Z",
      "apogee_km": 574.6063221625136,
      "perigee_km": 569.5774145625219,
      "latitude_deg": -5.517219812631195e-05,
      "longitude_deg": 104.53193585823793,
      "height_km": 574.5842903466182,
      "semi_major_axis_km": 6950.2288683625175,
      "eccentricity": 0.00036178,
      "inclination_deg": 69.9989,
      "raan_deg": 99.49,
      "arg_perigee_deg": 268.531,
      "mean_anomaly_deg": 91.5434,
      "mean_motion_rev_day": 14.98318366
    },
    {
      "epoch": "2026-04-05T09:14:37.995936Z",
      "apogee_km": 574.5438648803474,
      "perigee_km": 569.571417626209,
      "latitude_deg": -1.6850202022584902e-05,
      "longitude_deg": 124.78315202464732,
      "height_km": 574.5344490306923,
      "semi_major_axis_km": 6950.194641253278,
      "eccentricity": 0.00035772,
      "inclination_deg": 69.9985,
      "raan_deg": 97.133,
      "arg_perigee_deg": 268.8729,
      "mean_anomaly_deg": 91.202,
      "mean_motion_rev_day": 14.98329434
    },
    {
      "epoch": "2026-04-06T06:04:22.875456Z",
      "apogee_km": 574.6489707145747,
      "perigee_km": 569.5124818061586,
      "latitude_deg": -1.7883459368467894e-05,
      "longitude_deg": 169.30292981731716,
      "height_km": 574.3660568924078,
      "semi_major_axis_km": 6950.217726260366,
      "eccentricity": 0.00036952,
      "inclination_deg": 69.9992,
      "raan_deg": 94.9452,
      "arg_perigee_deg": 273.1849,
      "mean_anomaly_deg": 86.8887,
      "mean_motion_rev_day": 14.98321969
    },
    {
      "epoch": "2026-04-07T09:18:39.957408Z",
      "apogee_km": 574.1422958880939,
      "perigee_km": 569.9895496417412,
      "latitude_deg": 6.656303633415787e-05,
      "longitude_deg": 116.75175446570627,
      "height_km": 574.3657643085764,
      "semi_major_axis_km": 6950.202922764917,
      "eccentricity": 0.00029875,
      "inclination_deg": 70.0009,
      "raan_deg": 92.0838,
      "arg_perigee_deg": 273.5241,
      "mean_anomaly_deg": 86.5577,
      "mean_motion_rev_day": 14.98326756
    },
    {
      "epoch": "2026-04-07T17:19:18.672096Z",
      "apogee_km": 574.183128859785,
      "perigee_km": 569.8198319217954,
      "latitude_deg": -7.796856664762166e-05,
      "longitude_deg": -4.581300007157949,
      "height_km": 573.7539796951422,
      "semi_major_axis_km": 6950.1384803907895,
      "eccentricity": 0.0003139,
      "inclination_deg": 70.0016,
      "raan_deg": 91.2411,
      "arg_perigee_deg": 288.0225,
      "mean_anomaly_deg": 72.0591,
      "mean_motion_rev_day": 14.98347595
    }
  ]
}